IXPE                    
1 49954U 21121A   24063.91667824  .00008593  00000+0  66216-3 0  9994
2 49954   0.2304  93.6701 0009530 159.6090 337.9811 14.96714251  5798
